IRIDIUM 39              
1 25042U 97069D   25047.83888170  .00001069  00000+0  27683-3 0  9999
2 25042  86.3863 262.7340 0017800 355.5661   4.5382 14.48908112431536
IRIDIUM 38              
1 25043U 97069E   25047.92866593  .00000806  00000+0  26044-3 0  9993
2 25043  86.3927 283.7791 0003630 108.3161 251.8432 14.37919366428671
IRIDIUM 42              
1 25077U 97077A   25047.92710170  .00000691  00000+0  23049-3 0  9992
2 25077  86.3940 289.8055 0002481 100.5118 259.6359 14.36171907423930
IRIDIUM 44              
1 25078U 97077B   25047.85834068  .00000759  00000+0  23455-3 0  9994
2 25078  86.3914 272.0607 0003862  76.2225 283.9404 14.40042369426388
IRIDIUM 45              
1 25104U 97082A   25047.87957244  .00020829  00000+0  85319-3 0  9991
2 25104  86.3588 106.0820 0131496  61.6260 299.8165 15.16473189433773
IRIDIUM 24              
1 25105U 97082B   25047.77742201  .00000936  00000+0  27968-3 0  9999
2 25105  86.3938 131.3789 0013472 113.0697 247.1925 14.41890189425868
IRIDIUM 51              
1 25262U 98018A   25047.67606916  .00036260  00000+0  10654-2 0  9996
2 25262  86.3869 115.0549 0103898 351.3842   8.5617 15.29669434428548
IRIDIUM 57              
1 25273U 98019B   25047.95655431  .00000838  00000+0  28333-3 0  9992
2 25273  86.4000 195.5785 0002107  94.3309 265.8128 14.35734648407533
